FALCONSAT-6             
1 43815U 18099BK  26068.72544389  .00005029  00000+0  19477-3 0  9998
2 43815  97.3865 145.8165 0014370 297.0944 181.0714 15.26532865398556
STARLINK-33620          
1 63069U 25035T   26068.19638544  .00035094  00000+0  12783-2 0  9994
2 63069  43.0016 149.9253 0002195 276.6389  83.4213 15.27589414 59642
